CCSDS_OMM_VERS = 2.0
CREATION_DATE  = 
ORIGINATOR     = 

OBJECT_NAME    = SOYUZ-MS 28
OBJECT_ID      = 2025-275A
CENTER_NAME    = EARTH
REF_FRAME      = TEME
TIME_SYSTEM    = UTC
MEAN_ELEMENT_THEORY = SGP/SGP4

EPOCH          = 2026-01-12T04:14:44.874528
MEAN_MOTION    = 15.49250518
ECCENTRICITY   = .00077234
INCLINATION    = 51.6333
RA_OF_ASC_NODE = 351.7881
ARG_OF_PERICENTER = 8.9804
MEAN_ANOMALY   = 351.1321

EPHEMERIS_TYPE = 0
CLASSIFICATION_TYPE = U
NORAD_CAT_ID   = 66664
ELEMENT_SET_NO = 999
REV_AT_EPOCH   = 128
BSTAR          = .17470929E-3
MEAN_MOTION_DOT = .9276E-4
MEAN_MOTION_DDOT = 0

CCSDS_OMM_VERS = 2.0
CREATION_DATE  = 
ORIGINATOR     = 

OBJECT_NAME    = 1998-067XS
OBJECT_ID      = 1998-067XS
CENTER_NAME    = EARTH
REF_FRAME      = TEME
TIME_SYSTEM    = UTC
MEAN_ELEMENT_THEORY = SGP/SGP4

EPOCH          = 2026-01-12T03:10:34.688352
MEAN_MOTION    = 15.52367229
ECCENTRICITY   = .00022938
INCLINATION    = 51.6321
RA_OF_ASC_NODE = 351.4926
ARG_OF_PERICENTER = 1.4236
MEAN_ANOMALY   = 358.6760

EPHEMERIS_TYPE = 0
CLASSIFICATION_TYPE = U
NORAD_CAT_ID   = 66906
ELEMENT_SET_NO = 999
REV_AT_EPOCH   = 633
BSTAR          = .47058345E-3
MEAN_MOTION_DOT = .28862E-3
MEAN_MOTION_DDOT = 0

CCSDS_OMM_VERS = 2.0
CREATION_DATE  = 
ORIGINATOR     = 

OBJECT_NAME    = 1998-067XT
OBJECT_ID      = 1998-067XT
CENTER_NAME    = EARTH
REF_FRAME      = TEME
TIME_SYSTEM    = UTC
MEAN_ELEMENT_THEORY = SGP/SGP4

EPOCH          = 2026-01-12T03:39:02.151936
MEAN_MOTION    = 15.56049616
ECCENTRICITY   = .00036464
INCLINATION    = 51.6317
RA_OF_ASC_NODE = 350.8748
ARG_OF_PERICENTER = 47.2605
MEAN_ANOMALY   = 312.8693

EPHEMERIS_TYPE = 0
CLASSIFICATION_TYPE = U
NORAD_CAT_ID   = 66907
ELEMENT_SET_NO = 999
REV_AT_EPOCH   = 634
BSTAR          = .11606967E-2
MEAN_MOTION_DOT = .82843E-3
MEAN_MOTION_DDOT = 0

CCSDS_OMM_VERS = 2.0
CREATION_DATE  = 
ORIGINATOR     = 

OBJECT_NAME    = 1998-067XU
OBJECT_ID      = 1998-067XU
CENTER_NAME    = EARTH
REF_FRAME      = TEME
TIME_SYSTEM    = UTC
MEAN_ELEMENT_THEORY = SGP/SGP4

EPOCH          = 2026-01-11T15:17:45.113280
MEAN_MOTION    = 15.55929380
ECCENTRICITY   = .00036596
INCLINATION    = 51.6304
RA_OF_ASC_NODE = 353.4362
ARG_OF_PERICENTER = 40.6555
MEAN_ANOMALY   = 319.4710

EPHEMERIS_TYPE = 0
CLASSIFICATION_TYPE = U
NORAD_CAT_ID   = 66908
ELEMENT_SET_NO = 999
REV_AT_EPOCH   = 626
BSTAR          = .99318066E-3
MEAN_MOTION_DOT = .70389E-3
MEAN_MOTION_DDOT = 0

CCSDS_OMM_VERS = 2.0
CREATION_DATE  = 
ORIGINATOR     = 

OBJECT_NAME    = SILVERSAT
OBJECT_ID      = 1998-067XV
CENTER_NAME    = EARTH
REF_FRAME      = TEME
TIME_SYSTEM    = UTC
MEAN_ELEMENT_THEORY = SGP/SGP4

EPOCH          = 2026-01-12T03:27:06.651072
MEAN_MOTION    = 15.56696479
ECCENTRICITY   = .00038458
INCLINATION    = 51.6316
RA_OF_ASC_NODE = 350.8185
ARG_OF_PERICENTER = 53.7713
MEAN_ANOMALY   = 306.3634

EPHEMERIS_TYPE = 0
CLASSIFICATION_TYPE = U
NORAD_CAT_ID   = 66909
ELEMENT_SET_NO = 999
REV_AT_EPOCH   = 634
BSTAR          = .12660532E-2
MEAN_MOTION_DOT = .9273E-3
MEAN_MOTION_DDOT = 0

CCSDS_OMM_VERS = 2.0
CREATION_DATE  = 
ORIGINATOR     = 

OBJECT_NAME    = 1998-067XW
OBJECT_ID      = 1998-067XW
CENTER_NAME    = EARTH
REF_FRAME      = TEME
TIME_SYSTEM    = UTC
MEAN_ELEMENT_THEORY = SGP/SGP4

EPOCH          = 2026-01-12T03:28:22.649376
MEAN_MOTION    = 15.56350453
ECCENTRICITY   = .00026801
INCLINATION    = 51.6295
RA_OF_ASC_NODE = 350.8228
ARG_OF_PERICENTER = 27.8794
MEAN_ANOMALY   = 332.2341

EPHEMERIS_TYPE = 0
CLASSIFICATION_TYPE = U
NORAD_CAT_ID   = 66910
ELEMENT_SET_NO = 999
REV_AT_EPOCH   = 634
BSTAR          = .11635945E-2
MEAN_MOTION_DOT = .83989E-3
MEAN_MOTION_DDOT = 0

CCSDS_OMM_VERS = 2.0
CREATION_DATE  = 
ORIGINATOR     = 

OBJECT_NAME    = 1998-067XX
OBJECT_ID      = 1998-067XX
CENTER_NAME    = EARTH
REF_FRAME      = TEME
TIME_SYSTEM    = UTC
MEAN_ELEMENT_THEORY = SGP/SGP4

EPOCH          = 2026-01-12T00:04:28.288416
MEAN_MOTION    = 15.57399129
ECCENTRICITY   = .00028015
INCLINATION    = 51.6298
RA_OF_ASC_NODE = 351.3782
ARG_OF_PERICENTER = 43.9900
MEAN_ANOMALY   = 316.1315

EPHEMERIS_TYPE = 0
CLASSIFICATION_TYPE = U
NORAD_CAT_ID   = 66911
ELEMENT_SET_NO = 999
REV_AT_EPOCH   = 631
BSTAR          = .1321295E-2
MEAN_MOTION_DOT = .9945E-3
MEAN_MOTION_DDOT = 0

CCSDS_OMM_VERS = 2.0
CREATION_DATE  = 
ORIGINATOR     = 

OBJECT_NAME    = 1998-067XY
OBJECT_ID      = 1998-067XY
CENTER_NAME    = EARTH
REF_FRAME      = TEME
TIME_SYSTEM    = UTC
MEAN_ELEMENT_THEORY = SGP/SGP4

EPOCH          = 2026-01-12T07:07:37.333632
MEAN_MOTION    = 15.54708368
ECCENTRICITY   = .00035232
INCLINATION    = 51.6314
RA_OF_ASC_NODE = 350.3410
ARG_OF_PERICENTER = 31.6609
MEAN_ANOMALY   = 328.4593

EPHEMERIS_TYPE = 0
CLASSIFICATION_TYPE = U
NORAD_CAT_ID   = 66912
ELEMENT_SET_NO = 999
REV_AT_EPOCH   = 635
BSTAR          = .83030571E-3
MEAN_MOTION_DOT = .56065E-3
MEAN_MOTION_DDOT = 0

