SOYUZ-MS 28             
1 66664U 25275A   26012.17690827  .00009276  00000+0  17471-3 0  9996
2 66664  51.6333 351.7881 0007723   8.9804 351.1321 15.49250518  1289
1998-067XS              
1 66906U 98067XS  26012.13234593  .00028862  00000+0  47058-3 0  9990
2 66906  51.6321 351.4926 0002293   1.4236 358.6760 15.52367229  6338
1998-067XT              
1 66907U 98067XT  26012.15210824  .00082843  00000+0  11607-2 0  9993
2 66907  51.6317 350.8748 0003646  47.2605 312.8693 15.56049616  6349
1998-067XU              
1 66908U 98067XU  26011.63732770  .00070389  00000+0  99318-3 0  9993
2 66908  51.6304 353.4362 0003659  40.6555 319.4710 15.55929380  6260
SILVERSAT               
1 66909U 98067XV  26012.14382698  .00092730  00000+0  12661-2 0  9990
2 66909  51.6316 350.8185 0003845  53.7713 306.3634 15.56696479  6346
1998-067XW              
1 66910U 98067XW  26012.14470659  .00083989  00000+0  11636-2 0  9994
2 66910  51.6295 350.8228 0002680  27.8794 332.2341 15.56350453  6341
1998-067XX              
1 66911U 98067XX  26012.00310519  .00099450  00000+0  13213-2 0  9991
2 66911  51.6298 351.3782 0002801  43.9900 316.1315 15.57399129  6312
1998-067XY              
1 66912U 98067XY  26012.29695988  .00056065  00000+0  83031-3 0  9990
2 66912  51.6314 350.3410 0003523  31.6609 328.4593 15.54708368  6355
